NAVSTAR 77 (USA 289)    
1 43873U 18109A   24232.67507218  .00000019  00000+0  00000+0 0  9991
2 43873  55.3187 118.5191 0030062 193.0199 356.5317  2.00558626 41655
